[{"OBJECT_NAME":"ZACUBE-1 (TSHEPISOSAT)","OBJECT_ID":"2013-066B","EPOCH":"2026-03-09T22:19:27.469056","MEAN_MOTION":15.00329659,"ECCENTRICITY":0.00425262,"INCLINATION":97.8171,"RA_OF_ASC_NODE":30.7553,"ARG_OF_PERICENTER":219.1599,"MEAN_ANOMALY":140.6545,"EPHEMERIS_TYPE":0,"CLASSIFICATION_TYPE":"U","NORAD_CAT_ID":39417,"ELEMENT_SET_NO":999,"REV_AT_EPOCH":66584,"BSTAR":0.00042975473,"MEAN_MOTION_DOT":5.431e-5,"MEAN_MOTION_DDOT":0},{"OBJECT_NAME":"STARLINK-3547","OBJECT_ID":"2022-022AP","EPOCH":"2026-03-09T22:42:59.868864","MEAN_MOTION":15.08839838,"ECCENTRICITY":0.00013817,"INCLINATION":53.2184,"RA_OF_ASC_NODE":357.9683,"ARG_OF_PERICENTER":96.0513,"MEAN_ANOMALY":264.0637,"EPHEMERIS_TYPE":0,"CLASSIFICATION_TYPE":"U","NORAD_CAT_ID":51889,"ELEMENT_SET_NO":999,"REV_AT_EPOCH":22328,"BSTAR":-1.74758e-6,"MEAN_MOTION_DOT":-3.16e-6,"MEAN_MOTION_DDOT":0}]
